[
    {
        "postcode": 2000,
        "place_name": "Sydney",
        "state_name": "New South Wales",
        "state_code": "NSW",
        "latitude": -33.8678,
        "longitude": 151.2073,
        "accuracy": 4
    },
    {
        "postcode": 2042,
        "place_name": "Newtown",
        "state_name": "New South Wales",
        "state_code": "NSW",
        "latitude": -33.8983,
        "longitude": 151.1775,
        "accuracy": 4
    },
    {
        "postcode": 1655,
        "place_name": "Manly",
        "state_name": "New South Wales",
        "state_code": "NSW",
        "latitude": -33.798,
        "longitude": 151.2883,
        "accuracy": 4
    },
    {
        "postcode": 2055,
        "place_name": "North Sydney",
        "state_name": "New South Wales",
        "state_code": "NSW",
        "latitude": -33.839,
        "longitude": 151.2072,
        "accuracy": 4
    },
    {
        "postcode": 2020,
        "place_name": "Mascot",
        "state_name": "New South Wales",
        "state_code": "NSW",
        "latitude": -33.926,
        "longitude": 151.1935,
        "accuracy": 4
    },
    {
        "postcode": 2150,
        "place_name": "Parramatta",
        "state_name": "New South Wales",
        "state_code": "NSW",
        "latitude": -33.8197,
        "longitude": 151.0067,
        "accuracy": 3
    },
    {
        "postcode": 2026,
        "place_name": "Bondi",
        "state_name": "New South Wales",
        "state_code": "NSW",
        "latitude": -33.8943,
        "longitude": 151.2644,
        "accuracy": 4
    },
    {
        "postcode": 2170,
        "place_name": "Liverpool",
        "state_name": "New South Wales",
        "state_code": "NSW",
        "latitude": -33.9,
        "longitude": 150.9333,
        "accuracy": 4
    },
    {
        "postcode": 2148,
        "place_name": "Blacktown",
        "state_name": "New South Wales",
        "state_code": "NSW",
        "latitude": -33.7667,
        "longitude": 150.9167,
        "accuracy": 4
    },
    {
        "postcode": 2560,
        "place_name": "Campbelltown",
        "state_name": "New South Wales",
        "state_code": "NSW",
        "latitude": -34.0667,
        "longitude": 150.8167,
        "accuracy": 4
    },
    {
        "postcode": 2750,
        "place_name": "Penrith",
        "state_name": "New South Wales",
        "state_code": "NSW",
        "latitude": -33.75,
        "longitude": 150.7,
        "accuracy": 4
    },
    {
        "postcode": 2777,
        "place_name": "Springwood",
        "state_name": "New South Wales",
        "state_code": "NSW",
        "latitude": -33.7,
        "longitude": 150.55,
        "accuracy": 4
    },
    {
        "postcode": 2100,
        "place_name": "Brookvale",
        "state_name": "New South Wales",
        "state_code": "NSW",
        "latitude": -33.7611,
        "longitude": 151.2745,
        "accuracy": 4
    },
    {
        "postcode": 2131,
        "place_name": "Ashfield",
        "state_name": "New South Wales",
        "state_code": "NSW",
        "latitude": -33.8883,
        "longitude": 151.1227,
        "accuracy": 4
    },
    {
        "postcode": 2166,
        "place_name": "Cabramatta",
        "state_name": "New South Wales",
        "state_code": "NSW",
        "latitude": -33.8974,
        "longitude": 150.9345,
        "accuracy": 4
    },
    {
        "postcode": 2570,
        "place_name": "Camden",
        "state_name": "New South Wales",
        "state_code": "NSW",
        "latitude": -34.054,
        "longitude": 150.6962,
        "accuracy": 4
    },
    {
        "postcode": 2233,
        "place_name": "Heathcote",
        "state_name": "New South Wales",
        "state_code": "NSW",
        "latitude": -34.0841,
        "longitude": 151.013,
        "accuracy": 4
    },
    {
        "postcode": 2220,
        "place_name": "Hurstville",
        "state_name": "New South Wales",
        "state_code": "NSW",
        "latitude": -33.9799,
        "longitude": 151.0903,
        "accuracy": 4
    },
    {
        "postcode":2154,
        "place_name":"Castle Hill",
        "state_name":"New South Wales",
        "state_code":"NSW",
        "latitude":-33.7333,
        "longitude":151,
        "accuracy":4
    }
]
